NORAD_CAT_ID,OBJECT_NAME,OBJECT_TYPE,EPOCH,MEAN_MOTION,ECCENTRICITY,INCLINATION,RA_OF_ASC_NODE,ARG_OF_PERICENTER,MEAN_ANOMALY,BSTAR,MEAN_MOTION_DOT,MEAN_MOTION_DDOT,TLE_LINE0,TLE_LINE1,TLE_LINE2,SEMIMAJOR_AXIS,PERIOD,APOGEE,PERIGEE,DECAYED
53421.0,STARLINK-4545,PAYLOAD,2024-05-25 08:30:16,15.08841726,0.0001083,53.2159,167.0538,90.2475,269.8641,9.5365e-05,1.23e-05,0.0,0 STARLINK-4545,1 53421U 22097AK  24146.35435848  .00001230  00000-0  95365-4 0  9990,2 53421  53.2159 167.0538 0001083  90.2475 269.8641 15.08841726 99995,6917.875,95.437,540.489,538.991,0.0
53421.0,STARLINK-4545,PAYLOAD,2024-05-26 05:10:16,15.08876561,0.000146,53.2175,163.2069,128.2613,231.851,-0.00012296,-2.246e-05,0.0,0 STARLINK-4545,1 53421U 22097AK  24147.21546374 -.00002246  00000-0 -12296-3 0  9994,2 53421  53.2175 163.2069 0001460 128.2613 231.8510 15.08876561 99668,6917.769,95.435,540.644,538.624,0.0
53421.0,STARLINK-4545,PAYLOAD,2024-05-26 11:31:50,15.08836777,0.0001074,53.2161,162.0009,91.6707,268.4408,2.8812e-05,1.71e-06,0.0,0 STARLINK-4545,1 53421U 22097AK  24147.48044427  .00000171  00000-0  28812-4 0  9990,2 53421  53.2161 162.0009 0001074  91.6707 268.4408 15.08836777 99704,6917.89,95.438,540.498,539.012,0.0
53421.0,STARLINK-4545,PAYLOAD,2024-05-27 09:47:14,15.08834462,0.0001346,53.2166,157.8376,93.6585,266.4561,5.9795e-05,6.64e-06,0.0,0 STARLINK-4545,1 53421U 22097AK  24148.40780882  .00000664  00000-0  59795-4 0  9996,2 53421  53.2166 157.8376 0001346  93.6585 266.4561 15.08834462100302,6917.897,95.438,540.693,538.831,0.0
53421.0,STARLINK-4545,PAYLOAD,2024-05-27 17:44:10,15.08834444,0.0001402,53.2168,156.3507,81.1255,278.9895,5.2329e-05,5.45e-06,0.0,0 STARLINK-4545,1 53421U 22097AK  24148.73901015  .00000545  00000-0  52329-4 0  9999,2 53421  53.2168 156.3507 0001402  81.1255 278.9895 15.08834444 99892,6917.897,95.438,540.732,538.792,0.0
53421.0,STARLINK-4545,PAYLOAD,2024-05-28 08:02:38,15.08841346,0.0001312,53.2161,153.6744,83.16,276.9541,8.708e-05,1.098e-05,0.0,0 STARLINK-4545,1 53421U 22097AK  24149.33516482  .00001098  00000-0  87080-4 0  9992,2 53421  53.2161 153.6744 0001312  83.1600 276.9541 15.08841346 99989,6917.876,95.437,540.649,538.834,0.0
53421.0,STARLINK-4545,PAYLOAD,2024-05-29 09:28:48,15.08842486,0.0001269,53.2159,148.9155,83.9847,276.129,0.00010014,1.306e-05,0.0,0 STARLINK-4545,1 53421U 22097AK  24150.39500287  .00001306  00000-0  10014-3 0  9990,2 53421  53.2159 148.9155 0001269  83.9847 276.1290 15.08842486100141,6917.873,95.437,540.616,538.86,0.0
53421.0,STARLINK-4545,PAYLOAD,2024-05-30 09:19:35,15.0884456,0.0001304,53.2159,144.4545,84.1351,275.979,5.6085e-05,6.05e-06,0.0,0 STARLINK-4545,1 53421U 22097AK  24151.38860207  .00000605  00000-0  56085-4 0  9991,2 53421  53.2159 144.4545 0001304  84.1351 275.9790 15.08844560100752,6917.866,95.437,540.634,538.829,0.0
53421.0,STARLINK-4545,PAYLOAD,2024-05-31 04:24:13,15.08840837,0.000135,53.2163,140.8854,89.5294,270.5853,3.0853e-05,2.03e-06,0.0,0 STARLINK-4545,1 53421U 22097AK  24152.18348422  .00000203  00000-0  30853-4 0  9999,2 53421  53.2163 140.8854 0001350  89.5294 270.5853 15.08840837100413,6917.878,95.438,540.677,538.809,0.0
53421.0,STARLINK-4545,PAYLOAD,2024-05-31 09:10:22,15.08840239,0.0001374,53.2164,139.9941,93.0657,267.0492,2.3673e-05,8.9e-07,0.0,0 STARLINK-4545,1 53421U 22097AK  24152.38220463  .00000089  00000-0  23673-4 0  9999,2 53421  53.2164 139.9941 0001374  93.0657 267.0492 15.08840239100909,6917.88,95.438,540.695,538.794,0.0
53421.0,STARLINK-4545,PAYLOAD,2024-06-01 05:50:23,15.08837995,0.0001335,53.2163,136.1291,91.6941,268.4204,1.6323e-05,-2.8e-07,0.0,0 STARLINK-4545,1 53421U 22097AK  24153.24332689 -.00000028  00000-0  16323-4 0  9997,2 53421  53.2163 136.1291 0001335  91.6941 268.4204 15.08837995100576,6917.887,95.438,540.675,538.828,0.0
53421.0,STARLINK-4545,PAYLOAD,2024-06-02 08:51:56,15.08838894,0.0001363,53.217,131.0752,92.652,267.4628,6.2545e-05,7.08e-06,0.0,0 STARLINK-4545,1 53421U 22097AK  24154.36940786  .00000708  00000-0  62545-4 0  9995,2 53421  53.2170 131.0752 0001363  92.6520 267.4628 15.08838894100742,6917.884,95.438,540.692,538.806,0.0
53421.0,STARLINK-4545,PAYLOAD,2024-06-02 15:13:29,15.08836142,0.0001343,53.2169,129.8855,91.7006,268.414,4.7734e-05,4.72e-06,0.0,0 STARLINK-4545,1 53421U 22097AK  24154.63437086  .00000472  00000-0  47734-4 0  9990,2 53421  53.2169 129.8855 0001343  91.7006 268.4140 15.08836142101246,6917.892,95.438,540.686,538.828,0.0
53421.0,STARLINK-4545,PAYLOAD,2024-06-03 05:31:57,15.08841136,0.0001315,53.2166,127.2095,94.529,265.5853,8.8867e-05,1.127e-05,0.0,0 STARLINK-4545,1 53421U 22097AK  24155.23052821  .00001127  00000-0  88867-4 0  9997,2 53421  53.2166 127.2095 0001315  94.5290 265.5853 15.08841136101334,6917.877,95.437,540.652,538.832,0.0
53421.0,STARLINK-4545,PAYLOAD,2024-06-03 15:04:16,15.08841634,0.0001307,53.2168,125.425,90.8182,269.296,8.1573e-05,1.011e-05,0.0,0 STARLINK-4545,1 53421U 22097AK  24155.62796834  .00001011  00000-0  81573-4 0  9998,2 53421  53.2168 125.4250 0001307  90.8182 269.2960 15.08841634100937,6917.875,95.437,540.645,538.836,0.0
53421.0,STARLINK-4545,PAYLOAD,2024-06-04 03:47:22,15.08834999,0.0001345,53.2167,123.0461,87.8909,272.2237,5.0578e-06,-2.07e-06,0.0,0 STARLINK-4545,1 53421U 22097AK  24156.15789629 -.00000207  00000-0  50578-5 0  9990,2 53421  53.2167 123.0461 0001345  87.8909 272.2237 15.08834999101016,6917.896,95.438,540.691,538.83,0.0
53421.0,STARLINK-4545,PAYLOAD,2024-06-04 06:58:08,15.08836742,0.0001362,53.2168,122.4515,87.539,272.5759,1.881e-05,1.1e-07,0.0,0 STARLINK-4545,1 53421U 22097AK  24156.29037506  .00000011  00000-0  18810-4 0  9999,2 53421  53.2168 122.4515 0001362  87.5390 272.5759 15.08836742101492,6917.89,95.438,540.698,538.813,0.0
53421.0,STARLINK-4545,PAYLOAD,2024-06-05 06:48:55,15.08844394,0.0001349,53.2167,117.9908,97.4316,262.683,2.3006e-05,7.8e-07,0.0,0 STARLINK-4545,1 53421U 22097AK  24157.28397102  .00000078  00000-0  23006-4 0  9996,2 53421  53.2167 117.9908 0001349  97.4316 262.6830 15.08844394101187,6917.867,95.437,540.665,538.799,0.0
53421.0,STARLINK-4545,PAYLOAD,2024-06-05 21:07:23,15.08836721,0.0001318,53.2171,115.3135,93.2396,266.8747,9.5847e-05,1.238e-05,0.0,0 STARLINK-4545,1 53421U 22097AK  24157.88013352  .00001238  00000-0  95847-4 0  9995,2 53421  53.2171 115.3135 0001318  93.2396 266.8747 15.08836721101733,6917.89,95.438,540.667,538.844,0.0
53421.0,STARLINK-4545,PAYLOAD,2024-06-06 03:28:55,15.08840772,0.0001317,53.2172,114.1236,95.6337,264.4805,9.8219e-05,1.276e-05,0.0,0 STARLINK-4545,1 53421U 22097AK  24158.14509056  .00001276  00000-0  98219-4 0  9994,2 53421  53.2172 114.1236 0001317  95.6337 264.4805 15.08840772101777,6917.878,95.438,540.654,538.832,0.0
53421.0,STARLINK-4545,PAYLOAD,2024-06-06 20:58:10,15.0884036,0.0001361,53.2161,110.8531,97.3266,262.7881,4.379e-05,4.09e-06,0.0,0 STARLINK-4545,1 53421U 22097AK  24158.87373337  .00000409  00000-0  43790-4 0  9996,2 53421  53.2161 110.8531 0001361  97.3266 262.7881 15.08840360101425,6917.879,95.438,540.686,538.803,0.0
53421.0,STARLINK-4545,PAYLOAD,2024-06-07 20:48:57,15.08840719,0.0001436,53.2168,106.3922,105.3979,254.7172,4.866e-05,4.87e-06,0.0,0 STARLINK-4545,1 53421U 22097AK  24159.86733243  .00000487  00000-0  48660-4 0  9999,2 53421  53.2168 106.3922 0001436 105.3979 254.7172 15.08840719102030,6917.878,95.438,540.737,538.75,0.0
53421.0,STARLINK-4545,PAYLOAD,2024-06-08 03:10:29,15.08846181,0.0001353,53.2166,105.2037,98.6826,261.4319,7.7901e-05,9.52e-06,0.0,0 STARLINK-4545,1 53421U 22097AK  24160.13228790  .00000952  00000-0  77901-4 0  9994,2 53421  53.2166 105.2037 0001353  98.6826 261.4319 15.08846181101616,6917.861,95.437,540.662,538.791,0.0
53421.0,STARLINK-4545,PAYLOAD,2024-06-08 06:21:15,15.08855441,0.0001323,53.2162,104.6083,101.2342,258.8799,-1.6762e-05,-5.55e-06,0.0,0 STARLINK-4545,1 53421U 22097AK  24160.26476357 -.00000555  00000-0 -16762-4 0  9991,2 53421  53.2162 104.6083 0001323 101.2342 258.8799 15.08855441102091,6917.833,95.437,540.613,538.783,0.0
53421.0,STARLINK-4545,PAYLOAD,2024-06-08 20:39:45,15.08831123,0.0001844,53.2177,101.9309,110.3243,249.7947,2.7064e-06,-2.45e-06,0.0,0 STARLINK-4545,1 53421U 22097AK  24160.86094040 -.00000245  00000-0  27064-5 0  9995,2 53421  53.2177 101.9309 0001844 110.3243 249.7947 15.08831123101721,6917.908,95.438,541.048,538.497,0.0
53421.0,STARLINK-4545,PAYLOAD,2024-06-09 03:01:17,15.08831471,0.00012,53.217,100.7447,90.9662,269.1467,1.7722e-05,-6e-08,0.0,0 STARLINK-4545,1 53421U 22097AK  24161.12590237 -.00000006  00000-0  17722-4 0  9998,2 53421  53.2170 100.7447 0001200  90.9662 269.1467 15.08831471102223,6917.906,95.438,540.602,538.941,0.0
53421.0,STARLINK-4545,PAYLOAD,2024-06-09 18:55:09,15.08834855,0.0001287,53.2174,97.7709,96.0377,264.0762,9.6831e-06,-1.34e-06,0.0,0 STARLINK-4545,1 53421U 22097AK  24161.78830422 -.00000134  00000-0  96831-5 0  9994,2 53421  53.2174  97.7709 0001287  96.0377 264.0762 15.08834855102320,6917.896,95.438,540.651,538.871,0.0
53421.0,STARLINK-4545,PAYLOAD,2024-06-10 04:27:27,15.08843063,0.0001345,53.2177,95.9868,94.4442,265.6704,8.7801e-05,1.11e-05,0.0,0 STARLINK-4545,1 53421U 22097AK  24162.18573882  .00001110  00000-0  87801-4 0  9993,2 53421  53.2177  95.9868 0001345  94.4442 265.6704 15.08843063101928,6917.871,95.437,540.666,538.806,0.0
53421.0,STARLINK-4545,PAYLOAD,2024-06-10 12:24:23,15.08842342,0.0001319,53.2174,94.4993,92.7828,267.3315,-1.1974e-06,-3.07e-06,0.0,0 STARLINK-4545,1 53421U 22097AK  24162.51694065 -.00000307  00000-0 -11974-5 0  9995,2 53421  53.2174  94.4993 0001319  92.7828 267.3315 15.08842342102431,6917.873,95.437,540.651,538.826,0.0
53421.0,STARLINK-4545,PAYLOAD,2024-06-11 12:15:10,15.08843917,0.000135,53.217,90.0393,81.4465,278.668,0.00017262,2.461e-05,0.0,0 STARLINK-4545,1 53421U 22097AK  24163.51053960  .00002461  00000-0  17262-3 0  9994,2 53421  53.2170  90.0393 0001350  81.4465 278.6680 15.08843917102585,6917.868,95.437,540.667,538.8,0.0
